ONEWEB-0012             
1 44057U 19010A   25212.16602654  .00001319  00000+0  34165-2 0  9997
2 44057  87.9045 292.7913 0002490 104.8426 255.2981 13.16591577309355
ONEWEB-0010             
1 44058U 19010B   25211.73536456 -.00000003  00000+0 -40777-4 0  9995
2 44058  87.9044 292.8602 0002088  86.8666 273.2704 13.16595249309318
ONEWEB-0008             
1 44059U 19010C   25211.76070099  .00000033  00000+0  53676-4 0  9998
2 44059  87.9043 292.8534 0001838 102.9911 257.1425 13.16593634309437
ONEWEB-0007             
1 44060U 19010D   25211.84470851  .00002388  00000+0  63071-2 0  9992
2 44060  87.9094 323.3118 0002027 157.8864 202.2354 13.15548216309123
ONEWEB-0006             
1 44061U 19010E   25211.84867265  .00000117  00000+0  27760-3 0  9996
2 44061  87.9080 323.2541 0002041  92.1025 268.0340 13.15547707309178
ONEWEB-0011             
1 44062U 19010F   25211.81699594  .00000015  00000+0  54998-5 0  9994
2 44062  87.9083 323.2708 0001707  95.2905 264.8420 13.15547966309165
ONEWEB-0017             
1 45132U 20008B   25211.91644828  .00000561  00000+0  15694-2 0  9996
2 45132  87.8800 100.3540 0001800  69.2145 290.9175 13.10371847265873
ONEWEB-0020             
1 45133U 20008C   25211.73382376 -.00000300  00000+0 -89432-3 0  9999
2 45133  87.8804 100.3741 0001591  75.4546 284.6757 13.10374475266240
ONEWEB-0021             
1 45134U 20008D   25212.20694887  .00000422  00000+0  11722-2 0  9995
2 45134  87.8804 100.3138 0001940  77.2826 282.8518 13.10376571267481
ONEWEB-0023             
1 45136U 20008F   25211.75958185  .00000593  00000+0  16619-2 0  9999
2 45136  87.8799 100.3861 0001655  84.9372 275.1944 13.10372337265980
ONEWEB-0024             
1 45137U 20008G   25211.73217442 -.00000332  00000+0 -98875-3 0  9990
2 45137  87.8805 100.3400 0001835  75.4238 284.7093 13.10376881266142
ONEWEB-0025             
1 45138U 20008H   25211.74961305  .00000538  00000+0  15035-2 0  9998
2 45138  87.8821 100.3425 0002183  90.6373 269.5005 13.10374285266470
ONEWEB-0026             
1 45139U 20008J   25211.94915981  .00000523  00000+0  14390-2 0  9997
2 45139  87.8810  85.0929 0001683  73.8182 286.3131 13.11414876269003
ONEWEB-0028             
1 45140U 20008K   25211.90591537 -.00000521  00000+0 -15060-2 0  9997
2 45140  87.8805  85.1234 0002185  94.7358 265.4019 13.11416999266518
