[{"OBJECT_NAME":"ONEWEB-0012","OBJECT_ID":"2019-010A","EPOCH":"2025-07-31T03:59:04.693056","MEAN_MOTION":13.16591577,"ECCENTRICITY":0.000249,"INCLINATION":87.9045,"RA_OF_ASC_NODE":292.7913,"ARG_OF_PERICENTER":104.8426,"MEAN_ANOMALY":255.2981,"EPHEMERIS_TYPE":0,"CLASSIFICATION_TYPE":"U","NORAD_CAT_ID":44057,"ELEMENT_SET_NO":999,"REV_AT_EPOCH":30935,"BSTAR":0.0034165,"MEAN_MOTION_DOT":1.319e-5,"MEAN_MOTION_DDOT":0},{"OBJECT_NAME":"ONEWEB-0010","OBJECT_ID":"2019-010B","EPOCH":"2025-07-30T17:38:55.497984","MEAN_MOTION":13.16595249,"ECCENTRICITY":0.0002088,"INCLINATION":87.9044,"RA_OF_ASC_NODE":292.8602,"ARG_OF_PERICENTER":86.8666,"MEAN_ANOMALY":273.2704,"EPHEMERIS_TYPE":0,"CLASSIFICATION_TYPE":"U","NORAD_CAT_ID":44058,"ELEMENT_SET_NO":999,"REV_AT_EPOCH":30931,"BSTAR":-4.0777e-5,"MEAN_MOTION_DOT":-3.0e-8,"MEAN_MOTION_DDOT":0},{"OBJECT_NAME":"ONEWEB-0008","OBJECT_ID":"2019-010C","EPOCH":"2025-07-30T18:15:24.565536","MEAN_MOTION":13.16593634,"ECCENTRICITY":0.0001838,"INCLINATION":87.9043,"RA_OF_ASC_NODE":292.8534,"ARG_OF_PERICENTER":102.9911,"MEAN_ANOMALY":257.1425,"EPHEMERIS_TYPE":0,"CLASSIFICATION_TYPE":"U","NORAD_CAT_ID":44059,"ELEMENT_SET_NO":999,"REV_AT_EPOCH":30943,"BSTAR":5.3676e-5,"MEAN_MOTION_DOT":3.3e-7,"MEAN_MOTION_DDOT":0},{"OBJECT_NAME":"ONEWEB-0007","OBJECT_ID":"2019-010D","EPOCH":"2025-07-30T20:16:22.815264","MEAN_MOTION":13.15548216,"ECCENTRICITY":0.0002027,"INCLINATION":87.9094,"RA_OF_ASC_NODE":323.3118,"ARG_OF_PERICENTER":157.8864,"MEAN_ANOMALY":202.2354,"EPHEMERIS_TYPE":0,"CLASSIFICATION_TYPE":"U","NORAD_CAT_ID":44060,"ELEMENT_SET_NO":999,"REV_AT_EPOCH":30912,"BSTAR":0.0063071,"MEAN_MOTION_DOT":2.388e-5,"MEAN_MOTION_DDOT":0},{"OBJECT_NAME":"ONEWEB-0006","OBJECT_ID":"2019-010E","EPOCH":"2025-07-30T20:22:05.316960","MEAN_MOTION":13.15547707,"ECCENTRICITY":0.0002041,"INCLINATION":87.908,"RA_OF_ASC_NODE":323.2541,"ARG_OF_PERICENTER":92.1025,"MEAN_ANOMALY":268.034,"EPHEMERIS_TYPE":0,"CLASSIFICATION_TYPE":"U","NORAD_CAT_ID":44061,"ELEMENT_SET_NO":999,"REV_AT_EPOCH":30917,"BSTAR":0.0002776,"MEAN_MOTION_DOT":1.17e-6,"MEAN_MOTION_DDOT":0},{"OBJECT_NAME":"ONEWEB-0011","OBJECT_ID":"2019-010F","EPOCH":"2025-07-30T19:36:28.449216","MEAN_MOTION":13.15547966,"ECCENTRICITY":0.0001707,"INCLINATION":87.9083,"RA_OF_ASC_NODE":323.2708,"ARG_OF_PERICENTER":95.2905,"MEAN_ANOMALY":264.842,"EPHEMERIS_TYPE":0,"CLASSIFICATION_TYPE":"U","NORAD_CAT_ID":44062,"ELEMENT_SET_NO":999,"REV_AT_EPOCH":30916,"BSTAR":5.4998e-6,"MEAN_MOTION_DOT":1.5e-7,"MEAN_MOTION_DDOT":0},{"OBJECT_NAME":"ONEWEB-0017","OBJECT_ID":"2020-008B","EPOCH":"2025-07-30T21:59:41.131392","MEAN_MOTION":13.10371847,"ECCENTRICITY":0.00018,"INCLINATION":87.88,"RA_OF_ASC_NODE":100.354,"ARG_OF_PERICENTER":69.2145,"MEAN_ANOMALY":290.9175,"EPHEMERIS_TYPE":0,"CLASSIFICATION_TYPE":"U","NORAD_CAT_ID":45132,"ELEMENT_SET_NO":999,"REV_AT_EPOCH":26587,"BSTAR":0.0015694,"MEAN_MOTION_DOT":5.61e-6,"MEAN_MOTION_DDOT":0},{"OBJECT_NAME":"ONEWEB-0020","OBJECT_ID":"2020-008C","EPOCH":"2025-07-30T17:36:42.372864","MEAN_MOTION":13.10374475,"ECCENTRICITY":0.0001591,"INCLINATION":87.8804,"RA_OF_ASC_NODE":100.3741,"ARG_OF_PERICENTER":75.4546,"MEAN_ANOMALY":284.6757,"EPHEMERIS_TYPE":0,"CLASSIFICATION_TYPE":"U","NORAD_CAT_ID":45133,"ELEMENT_SET_NO":999,"REV_AT_EPOCH":26624,"BSTAR":-0.00089432,"MEAN_MOTION_DOT":-3.0e-6,"MEAN_MOTION_DDOT":0},{"OBJECT_NAME":"ONEWEB-0021","OBJECT_ID":"2020-008D","EPOCH":"2025-07-31T04:58:00.382368","MEAN_MOTION":13.10376571,"ECCENTRICITY":0.000194,"INCLINATION":87.8804,"RA_OF_ASC_NODE":100.3138,"ARG_OF_PERICENTER":77.2826,"MEAN_ANOMALY":282.8518,"EPHEMERIS_TYPE":0,"CLASSIFICATION_TYPE":"U","NORAD_CAT_ID":45134,"ELEMENT_SET_NO":999,"REV_AT_EPOCH":26748,"BSTAR":0.0011722,"MEAN_MOTION_DOT":4.22e-6,"MEAN_MOTION_DDOT":0},{"OBJECT_NAME":"ONEWEB-0023","OBJECT_ID":"2020-008F","EPOCH":"2025-07-30T18:13:47.871840","MEAN_MOTION":13.10372337,"ECCENTRICITY":0.0001655,"INCLINATION":87.8799,"RA_OF_ASC_NODE":100.3861,"ARG_OF_PERICENTER":84.9372,"MEAN_ANOMALY":275.1944,"EPHEMERIS_TYPE":0,"CLASSIFICATION_TYPE":"U","NORAD_CAT_ID":45136,"ELEMENT_SET_NO":999,"REV_AT_EPOCH":26598,"BSTAR":0.0016619,"MEAN_MOTION_DOT":5.93e-6,"MEAN_MOTION_DDOT":0},{"OBJECT_NAME":"ONEWEB-0024","OBJECT_ID":"2020-008G","EPOCH":"2025-07-30T17:34:19.869888","MEAN_MOTION":13.10376881,"ECCENTRICITY":0.0001835,"INCLINATION":87.8805,"RA_OF_ASC_NODE":100.34,"ARG_OF_PERICENTER":75.4238,"MEAN_ANOMALY":284.7093,"EPHEMERIS_TYPE":0,"CLASSIFICATION_TYPE":"U","NORAD_CAT_ID":45137,"ELEMENT_SET_NO":999,"REV_AT_EPOCH":26614,"BSTAR":-0.00098875,"MEAN_MOTION_DOT":-3.32e-6,"MEAN_MOTION_DDOT":0},{"OBJECT_NAME":"ONEWEB-0025","OBJECT_ID":"2020-008H","EPOCH":"2025-07-30T17:59:26.567520","MEAN_MOTION":13.10374285,"ECCENTRICITY":0.0002183,"INCLINATION":87.8821,"RA_OF_ASC_NODE":100.3425,"ARG_OF_PERICENTER":90.6373,"MEAN_ANOMALY":269.5005,"EPHEMERIS_TYPE":0,"CLASSIFICATION_TYPE":"U","NORAD_CAT_ID":45138,"ELEMENT_SET_NO":999,"REV_AT_EPOCH":26647,"BSTAR":0.0015035,"MEAN_MOTION_DOT":5.38e-6,"MEAN_MOTION_DDOT":0},{"OBJECT_NAME":"ONEWEB-0026","OBJECT_ID":"2020-008J","EPOCH":"2025-07-30T22:46:47.407584","MEAN_MOTION":13.11414876,"ECCENTRICITY":0.0001683,"INCLINATION":87.881,"RA_OF_ASC_NODE":85.0929,"ARG_OF_PERICENTER":73.8182,"MEAN_ANOMALY":286.3131,"EPHEMERIS_TYPE":0,"CLASSIFICATION_TYPE":"U","NORAD_CAT_ID":45139,"ELEMENT_SET_NO":999,"REV_AT_EPOCH":26900,"BSTAR":0.001439,"MEAN_MOTION_DOT":5.23e-6,"MEAN_MOTION_DDOT":0},{"OBJECT_NAME":"ONEWEB-0028","OBJECT_ID":"2020-008K","EPOCH":"2025-07-30T21:44:31.087968","MEAN_MOTION":13.11416999,"ECCENTRICITY":0.0002185,"INCLINATION":87.8805,"RA_OF_ASC_NODE":85.1234,"ARG_OF_PERICENTER":94.7358,"MEAN_ANOMALY":265.4019,"EPHEMERIS_TYPE":0,"CLASSIFICATION_TYPE":"U","NORAD_CAT_ID":45140,"ELEMENT_SET_NO":999,"REV_AT_EPOCH":26651,"BSTAR":-0.001506,"MEAN_MOTION_DOT":-5.21e-6,"MEAN_MOTION_DDOT":0}]
